{"fetched_at":"2026-07-21T17:53:10.368Z","source":"https://celestrak.org/NORAD/elements/gp.php?GROUP=spire&FORMAT=JSON","constellation":"spire","records":[{"OBJECT_NAME":"LEMUR-2-MYRA","OBJECT_ID":"2025-276EC","EPOCH":"2026-07-21T04:54:23.457888","CLASSIFICATION_TYPE":"U","MEAN_MOTION":15.00632509,"ECCENTRICITY":0.00185334,"INCLINATION":97.5224,"RA_OF_ASC_NODE":271.9782,"ARG_OF_PERICENTER":35.7742,"MEAN_ANOMALY":324.472,"EPHEMERIS_TYPE":0,"NORAD_CAT_ID":66787,"ELEMENT_SET_NO":999,"REV_AT_EPOCH":3531,"BSTAR":0.00035942189,"MEAN_MOTION_DOT":0.00004502,"MEAN_MOTION_DDOT":0},{"OBJECT_NAME":"LEMUR-2 FIKRETDENGIZ","OBJECT_ID":"2026-004A","EPOCH":"2026-07-20T22:46:18.512832","CLASSIFICATION_TYPE":"U","MEAN_MOTION":14.88543101,"ECCENTRICITY":0.00097849,"INCLINATION":97.8036,"RA_OF_ASC_NODE":199.9951,"ARG_OF_PERICENTER":39.335,"MEAN_ANOMALY":320.8576,"EPHEMERIS_TYPE":0,"NORAD_CAT_ID":67363,"ELEMENT_SET_NO":999,"REV_AT_EPOCH":2830,"BSTAR":0.00032833972,"MEAN_MOTION_DOT":0.00003002,"MEAN_MOTION_DDOT":0},{"OBJECT_NAME":"TWILIGHT-1 OBJECT B","OBJECT_ID":"2026-004B","EPOCH":"2026-07-20T23:43:51.115584","CLASSIFICATION_TYPE":"U","MEAN_MOTION":14.87805943,"ECCENTRICITY":0.00093149,"INCLINATION":97.8078,"RA_OF_ASC_NODE":200.0319,"ARG_OF_PERICENTER":28.9865,"MEAN_ANOMALY":331.1867,"EPHEMERIS_TYPE":0,"NORAD_CAT_ID":67364,"ELEMENT_SET_NO":999,"REV_AT_EPOCH":2831,"BSTAR":0.00012739587,"MEAN_MOTION_DOT":0.0000111,"MEAN_MOTION_DDOT":0},{"OBJECT_NAME":"LEMUR-2-MARIO-SOUSA","OBJECT_ID":"2026-004C","EPOCH":"2026-07-21T06:20:03.280704","CLASSIFICATION_TYPE":"U","MEAN_MOTION":14.88758179,"ECCENTRICITY":0.00093967,"INCLINATION":97.8009,"RA_OF_ASC_NODE":200.3004,"ARG_OF_PERICENTER":39.9592,"MEAN_ANOMALY":320.2314,"EPHEMERIS_TYPE":0,"NORAD_CAT_ID":67365,"ELEMENT_SET_NO":999,"REV_AT_EPOCH":2836,"BSTAR":0.00037604991,"MEAN_MOTION_DOT":0.00003464,"MEAN_MOTION_DDOT":0},{"OBJECT_NAME":"LEMUR-2-SONNENBLUME","OBJECT_ID":"2026-004E","EPOCH":"2026-07-21T06:25:48.028800","CLASSIFICATION_TYPE":"U","MEAN_MOTION":14.88473629,"ECCENTRICITY":0.00090399,"INCLINATION":97.8005,"RA_OF_ASC_NODE":200.2742,"ARG_OF_PERICENTER":40.8767,"MEAN_ANOMALY":319.3126,"EPHEMERIS_TYPE":0,"NORAD_CAT_ID":67367,"ELEMENT_SET_NO":999,"REV_AT_EPOCH":2836,"BSTAR":0.00020740644,"MEAN_MOTION_DOT":0.00001872,"MEAN_MOTION_DDOT":0},{"OBJECT_NAME":"LEMUR-2-WOBLER","OBJECT_ID":"2026-004F","EPOCH":"2026-07-20T23:41:46.345344","CLASSIFICATION_TYPE":"U","MEAN_MOTION":14.88722677,"ECCENTRICITY":0.00090126,"INCLINATION":97.8057,"RA_OF_ASC_NODE":200.155,"ARG_OF_PERICENTER":33.5154,"MEAN_ANOMALY":326.6632,"EPHEMERIS_TYPE":0,"NORAD_CAT_ID":67368,"ELEMENT_SET_NO":999,"REV_AT_EPOCH":2832,"BSTAR":0.00027385379,"MEAN_MOTION_DOT":0.00002505,"MEAN_MOTION_DDOT":0},{"OBJECT_NAME":"LEMUR-2-GRAM-E-SUE","OBJECT_ID":"2026-004H","EPOCH":"2026-07-21T04:21:27.439776","CLASSIFICATION_TYPE":"U","MEAN_MOTION":14.88607517,"ECCENTRICITY":0.00082491,"INCLINATION":97.7991,"RA_OF_ASC_NODE":200.2059,"ARG_OF_PERICENTER":44.5429,"MEAN_ANOMALY":315.645,"EPHEMERIS_TYPE":0,"NORAD_CAT_ID":67370,"ELEMENT_SET_NO":999,"REV_AT_EPOCH":2835,"BSTAR":0.00018291842,"MEAN_MOTION_DOT":0.0000165,"MEAN_MOTION_DDOT":0},{"OBJECT_NAME":"LEMUR-2-KATIE","OBJECT_ID":"2026-004AA","EPOCH":"2026-07-20T23:56:28.542048","CLASSIFICATION_TYPE":"U","MEAN_MOTION":14.90280948,"ECCENTRICITY":0.00029428,"INCLINATION":97.8051,"RA_OF_ASC_NODE":200.5955,"ARG_OF_PERICENTER":19.3742,"MEAN_ANOMALY":340.7587,"EPHEMERIS_TYPE":0,"NORAD_CAT_ID":67387,"ELEMENT_SET_NO":999,"REV_AT_EPOCH":2834,"BSTAR":0.00035009358,"MEAN_MOTION_DOT":0.00003345,"MEAN_MOTION_DDOT":0},{"OBJECT_NAME":"LEMUR-2-HCS-BAZUS","OBJECT_ID":"2026-004AB","EPOCH":"2026-07-20T23:54:03.311424","CLASSIFICATION_TYPE":"U","MEAN_MOTION":14.90288038,"ECCENTRICITY":0.0002444,"INCLINATION":97.8039,"RA_OF_ASC_NODE":200.5715,"ARG_OF_PERICENTER":20.6749,"MEAN_ANOMALY":339.4568,"EPHEMERIS_TYPE":0,"NORAD_CAT_ID":67388,"ELEMENT_SET_NO":999,"REV_AT_EPOCH":2834,"BSTAR":0.00029559763,"MEAN_MOTION_DOT":0.00002816,"MEAN_MOTION_DDOT":0}]}
